{"type": "FeatureCollection", "features": [ {"type": "Feature", "properties": {"norad_id": 40664, "name": "SKY MEXICO-1", "group": "intelsat", "lat": -0.03781341333349209, "lon": -111.37574037815185, "alt_km": 35778.4174140333, "timestamp": "2025-12-22T15:43:48.652711+00:00", "meta": {"OBJECT_NAME": "SKY MEXICO-1", "OBJECT_ID": "2015-026B", "EPOCH": "2025-12-22T06:13:05.254176", "MEAN_MOTION": 1.00271238, "ECCENTRICITY": 0.00023868, "INCLINATION": 0.0157, "RA_OF_ASC_NODE": 359.5095, "ARG_OF_PERICENTER": 288.2085, "MEAN_ANOMALY": 177.8602, "EPHEMERIS_TYPE": 0, "CLASSIFICATION_TYPE": "U", "NORAD_CAT_ID": 40664, "ELEMENT_SET_NO": 999, "REV_AT_EPOCH": 3868, "BSTAR": 0, "MEAN_MOTION_DOT": -2.13e-06, "MEAN_MOTION_DDOT": 0}, "tle": {"line1": "1 40664U 15026B   25356.25908859 -.00000213  00000+0  00000+0 0  9996", "line2": "2 40664   0.0157 359.5095 0002386 288.2085 177.8602  1.00271238 38683"}}, "geometry": {"type": "Point", "coordinates": [-111.37574037815185, -0.03781341333349209]}}, {"type": "Feature", "properties": {"norad_id": 40874, "name": "INTELSAT 34 (IS-34)", "group": "intelsat", "lat": -0.026192286172466422, "lon": -88.07563742558737, "alt_km": 35787.38057816926, "timestamp": "2025-12-22T15:43:48.652723+00:00", "meta": {"OBJECT_NAME": "INTELSAT 34 (IS-34)", "OBJECT_ID": "2015-039A", "EPOCH": "2025-12-22T05:24:38.582784", "MEAN_MOTION": 1.00273719, "ECCENTRICITY": 7.787e-05, "INCLINATION": 0.0116, "RA_OF_ASC_NODE": 317.9969, "ARG_OF_PERICENTER": 191.0981, "MEAN_ANOMALY": 327.6105, "EPHEMERIS_TYPE": 0, "CLASSIFICATION_TYPE": "U", "NORAD_CAT_ID": 40874, "ELEMENT_SET_NO": 999, "REV_AT_EPOCH": 3785, "BSTAR": 0, "MEAN_MOTION_DOT": -2.63e-06, "MEAN_MOTION_DDOT": 0}, "tle": {"line1": "1 40874U 15039A   25356.22544656 -.00000263  00000+0  00000+0 0  9996", "line2": "2 40874   0.0116 317.9969 0000778 191.0981 327.6105  1.00273719 37855"}}, "geometry": {"type": "Point", "coordinates": [-88.07563742558737, -0.026192286172466422]}}, {"type": "Feature", "properties": {"norad_id": 41581, "name": "INTELSAT 31 (IS-31)", "group": "intelsat", "lat": -0.02406138824006677, "lon": -127.57209590432612, "alt_km": 35773.01148626719, "timestamp": "2025-12-22T15:43:48.652735+00:00", "meta": {"OBJECT_NAME": "INTELSAT 31 (IS-31)", "OBJECT_ID": "2016-035A", "EPOCH": "2025-12-22T04:09:14.897376", "MEAN_MOTION": 1.00291043, "ECCENTRICITY": 0.0002768, "INCLINATION": 0.032, "RA_OF_ASC_NODE": 260.9833, "ARG_OF_PERICENTER": 282.9191, "MEAN_ANOMALY": 234.3596, "EPHEMERIS_TYPE": 0, "CLASSIFICATION_TYPE": "U", "NORAD_CAT_ID": 41581, "ELEMENT_SET_NO": 999, "REV_AT_EPOCH": 3490, "BSTAR": 0, "MEAN_MOTION_DOT": -1.32e-06, "MEAN_MOTION_DDOT": 0}, "tle": {"line1": "1 41581U 16035A   25356.17308909 -.00000132  00000+0  00000+0 0  9997", "line2": "2 41581   0.0320 260.9833 0002768 282.9191 234.3596  1.00291043 34900"}}, "geometry": {"type": "Point", "coordinates": [-127.57209590432612, -0.02406138824006677]}}, {"type": "Feature", "properties": {"norad_id": 41747, "name": "INTELSAT 36 (IS-36)", "group": "intelsat", "lat": 0.020474135813143654, "lon": 35.908391610054466, "alt_km": 35784.875911508876, "timestamp": "2025-12-22T15:43:48.652746+00:00", "meta": {"OBJECT_NAME": "INTELSAT 36 (IS-36)", "OBJECT_ID": "2016-053A", "EPOCH": "2025-12-22T03:13:12.764928", "MEAN_MOTION": 1.00270934, "ECCENTRICITY": 9.841e-05, "INCLINATION": 0.0105, "RA_OF_ASC_NODE": 357.6786, "ARG_OF_PERICENTER": 328.626, "MEAN_ANOMALY": 241.4387, "EPHEMERIS_TYPE": 0, "CLASSIFICATION_TYPE": "U", "NORAD_CAT_ID": 41747, "ELEMENT_SET_NO": 999, "REV_AT_EPOCH": 3417, "BSTAR": 0, "MEAN_MOTION_DOT": -2e-08, "MEAN_MOTION_DDOT": 0}, "tle": {"line1": "1 41747U 16053A   25356.13417552 -.00000002  00000+0  00000+0 0  9998", "line2": "2 41747   0.0105 357.6786 0000984 328.6260 241.4387  1.00270934 34171"}}, "geometry": {"type": "Point", "coordinates": [35.908391610054466, 0.020474135813143654]}}, {"type": "Feature", "properties": {"norad_id": 41945, "name": "INTELSAT 32E (IS-32E)", "group": "intelsat", "lat": -0.033033488031836915, "lon": -75.7905627922405, "alt_km": 35788.07117213974, "timestamp": "2025-12-22T15:43:48.652758+00:00", "meta": {"OBJECT_NAME": "INTELSAT 32E (IS-32E)", "OBJECT_ID": "2017-007B", "EPOCH": "2025-12-22T05:16:38.623008", "MEAN_MOTION": 1.00267068, "ECCENTRICITY": 7.668e-05, "INCLINATION": 0.0254, "RA_OF_ASC_NODE": 68.7596, "ARG_OF_PERICENTER": 316.2563, "MEAN_ANOMALY": 101.9957, "EPHEMERIS_TYPE": 0, "CLASSIFICATION_TYPE": "U", "NORAD_CAT_ID": 41945, "ELEMENT_SET_NO": 999, "REV_AT_EPOCH": 3245, "BSTAR": 0, "MEAN_MOTION_DOT": -2.47e-06, "MEAN_MOTION_DDOT": 0}, "tle": {"line1": "1 41945U 17007B   25356.21989147 -.00000247  00000+0  00000+0 0  9992", "line2": "2 41945   0.0254  68.7596 0000766 316.2563 101.9957  1.00267068 32458"}}, "geometry": {"type": "Point", "coordinates": [-75.7905627922405, -0.033033488031836915]}}, {"type": "Feature", "properties": {"norad_id": 42818, "name": "INTELSAT 35E (IS-35E)", "group": "intelsat", "lat": -0.04662508816151274, "lon": -67.09742914389541, "alt_km": 35779.2605471633, "timestamp": "2025-12-22T15:43:48.652770+00:00", "meta": {"OBJECT_NAME": "INTELSAT 35E (IS-35E)", "OBJECT_ID": "2017-041A", "EPOCH": "2025-12-22T06:09:10.912320", "MEAN_MOTION": 1.00267807, "ECCENTRICITY": 0.00019422, "INCLINATION": 0.022, "RA_OF_ASC_NODE": 14.0034, "ARG_OF_PERICENTER": 264.7914, "MEAN_ANOMALY": 230.0647, "EPHEMERIS_TYPE": 0, "CLASSIFICATION_TYPE": "U", "NORAD_CAT_ID": 42818, "ELEMENT_SET_NO": 999, "REV_AT_EPOCH": 3104, "BSTAR": 0, "MEAN_MOTION_DOT": 0, "MEAN_MOTION_DDOT": 0}, "tle": {"line1": "1 42818U 17041A   25356.25637630  .00000000  00000+0  00000+0 0  9997", "line2": "2 42818   0.0220  14.0034 0001942 264.7914 230.0647  1.00267807 31041"}}, "geometry": {"type": "Point", "coordinates": [-67.09742914389541, -0.04662508816151274]}}, {"type": "Feature", "properties": {"norad_id": 42950, "name": "INTELSAT 37E (IS-37E)", "group": "intelsat", "lat": -0.027200857595915524, "lon": -50.569101442243884, "alt_km": 35777.89700631636, "timestamp": "2025-12-22T15:43:48.652781+00:00", "meta": {"OBJECT_NAME": "INTELSAT 37E (IS-37E)", "OBJECT_ID": "2017-059A", "EPOCH": "2025-12-22T04:31:12.793728", "MEAN_MOTION": 1.00271851, "ECCENTRICITY": 0.00028938, "INCLINATION": 0.0055, "RA_OF_ASC_NODE": 13.5689, "ARG_OF_PERICENTER": 247.6376, "MEAN_ANOMALY": 239.5969, "EPHEMERIS_TYPE": 0, "CLASSIFICATION_TYPE": "U", "NORAD_CAT_ID": 42950, "ELEMENT_SET_NO": 999, "REV_AT_EPOCH": 3029, "BSTAR": 0, "MEAN_MOTION_DOT": -1.19e-06, "MEAN_MOTION_DDOT": 0}, "tle": {"line1": "1 42950U 17059A   25356.18834252 -.00000119  00000+0  00000+0 0  9996", "line2": "2 42950   0.0055  13.5689 0002893 247.6376 239.5969  1.00271851 30293"}}, "geometry": {"type": "Point", "coordinates": [-50.569101442243884, -0.027200857595915524]}}, {"type": "Feature", "properties": {"norad_id": 43632, "name": "AZERSPACE 2 (IS-38)", "group": "intelsat", "lat": 0.013074876367733097, "lon": 12.526029387252064, "alt_km": 35787.774105478224, "timestamp": "2025-12-22T15:43:48.652793+00:00", "meta": {"OBJECT_NAME": "AZERSPACE 2 (IS-38)", "OBJECT_ID": "2018-074A", "EPOCH": "2025-12-22T03:06:28.410336", "MEAN_MOTION": 1.00270026, "ECCENTRICITY": 0.00011749, "INCLINATION": 0.0187, "RA_OF_ASC_NODE": 348.1932, "ARG_OF_PERICENTER": 279.5458, "MEAN_ANOMALY": 274.9316, "EPHEMERIS_TYPE": 0, "CLASSIFICATION_TYPE": "U", "NORAD_CAT_ID": 43632, "ELEMENT_SET_NO": 999, "REV_AT_EPOCH": 2667, "BSTAR": 0, "MEAN_MOTION_DOT": 1.59e-06, "MEAN_MOTION_DDOT": 0}, "tle": {"line1": "1 43632U 18074A   25356.12949549  .00000159  00000+0  00000+0 0  9995", "line2": "2 43632   0.0187 348.1932 0001174 279.5458 274.9316  1.00270026 26670"}}, "geometry": {"type": "Point", "coordinates": [12.526029387252064, 0.013074876367733097]}}, {"type": "Feature", "properties": {"norad_id": 43633, "name": "HORIZONS-3E", "group": "intelsat", "lat": -0.011189040141601079, "lon": 136.38374171364663, "alt_km": 35788.907506836775, "timestamp": "2025-12-22T15:43:48.652805+00:00", "meta": {"OBJECT_NAME": "HORIZONS-3E", "OBJECT_ID": "2018-074B", "EPOCH": "2025-12-22T05:24:30.190752", "MEAN_MOTION": 1.00270178, "ECCENTRICITY": 5.673e-05, "INCLINATION": 0.0097, "RA_OF_ASC_NODE": 216.8452, "ARG_OF_PERICENTER": 94.9387, "MEAN_ANOMALY": 29.3592, "EPHEMERIS_TYPE": 0, "CLASSIFICATION_TYPE": "U", "NORAD_CAT_ID": 43633, "ELEMENT_SET_NO": 999, "REV_AT_EPOCH": 2656, "BSTAR": 0, "MEAN_MOTION_DOT": 0, "MEAN_MOTION_DDOT": 0}, "tle": {"line1": "1 43633U 18074B   25356.22534943  .00000000  00000+0  00000+0 0  9990", "line2": "2 43633   0.0097 216.8452 0000567  94.9387  29.3592  1.00270178 26568"}}, "geometry": {"type": "Point", "coordinates": [136.38374171364663, -0.011189040141601079]}}, {"type": "Feature", "properties": {"norad_id": 44333, "name": "AT&T T-16", "group": "intelsat", "lat": -0.005187444409222608, "lon": -133.43496854708025, "alt_km": 35785.423488336106, "timestamp": "2025-12-22T15:43:48.652817+00:00", "meta": {"OBJECT_NAME": "AT&T T-16", "OBJECT_ID": "2019-034A", "EPOCH": "2025-12-22T06:15:17.426304", "MEAN_MOTION": 1.00272128, "ECCENTRICITY": 0.00010626, "INCLINATION": 0.0194, "RA_OF_ASC_NODE": 60.9722, "ARG_OF_PERICENTER": 83.2069, "MEAN_ANOMALY": 299.8613, "EPHEMERIS_TYPE": 0, "CLASSIFICATION_TYPE": "U", "NORAD_CAT_ID": 44333, "ELEMENT_SET_NO": 999, "REV_AT_EPOCH": 2386, "BSTAR": 0, "MEAN_MOTION_DOT": -9.4e-07, "MEAN_MOTION_DDOT": 0}, "tle": {"line1": "1 44333U 19034A   25356.26061836 -.00000094  00000+0  00000+0 0  9999", "line2": "2 44333   0.0194  60.9722 0001062  83.2069 299.8613  1.00272128 23866"}}, "geometry": {"type": "Point", "coordinates": [-133.43496854708025, -0.005187444409222608]}}]}